ONEWEB-0607             
1 54671U 22166AF  25149.19348207  .00000049  00000+0  87676-4 0  9995
2 54671  87.9246 320.5520 0001731  88.3127 271.8205 13.21825743121273
ONEWEB-0608             
1 54672U 22166AG  25149.19979117  .00000071  00000+0  14111-3 0  9994
2 54672  87.9229 320.5453 0001722  74.4146 285.7178 13.21824538121282
ONEWEB-0610             
1 54673U 22166AH  25148.72669210  .00000146  00000+0  32297-3 0  9991
2 54673  87.9245 320.6643 0001847  78.4051 281.7290 13.21826399120669
ONEWEB-0611             
1 54674U 22166AJ  25149.17456033  .00000015  00000+0  54125-5 0  9990
2 54674  87.9244 320.5720 0001876 101.0803 259.0542 13.21825288121186
ONEWEB-0612             
1 54675U 22166AK  25148.73300530  .00000048  00000+0  85473-4 0  9997
2 54675  87.9244 320.6380 0001778  85.7621 274.3716 13.21825312120648
ONEWEB-0615             
1 54676U 22166AL  25149.16825565 -.00000050  00000+0 -15276-3 0  9994
2 54676  87.9243 320.5774 0001857  94.5054 265.6292 13.21827960121183
ONEWEB-0655             
1 54677U 22166AM  25148.76296716 -.00000021  00000+0 -81163-4 0  9997
2 54677  87.9246 320.6626 0001444  91.0473 269.0826 13.21827176120654
ONEWEB-0659             
1 54678U 22166AN  25148.47753020 -.00000042  00000+0 -13402-3 0  9995
2 54678  87.9243 320.7212 0001979  94.4825 265.6535 13.21825178120700
